[{"OBJECT_NAME":"HULIANWANG DIGUI-113","OBJECT_ID":"2025-285J","EPOCH":"2026-03-15T06:50:55.235328","MEAN_MOTION":13.29331463,"ECCENTRICITY":2.33e-5,"INCLINATION":50.0083,"RA_OF_ASC_NODE":122.449,"ARG_OF_PERICENTER":323.694,"MEAN_ANOMALY":36.3916,"EPHEMERIS_TYPE":0,"CLASSIFICATION_TYPE":"U","NORAD_CAT_ID":66923,"ELEMENT_SET_NO":999,"REV_AT_EPOCH":1357,"BSTAR":0.00010554609,"MEAN_MOTION_DOT":-7.5e-7,"MEAN_MOTION_DDOT":0},{"OBJECT_NAME":"HULIANWANG DIGUI-114","OBJECT_ID":"2025-287A","EPOCH":"2026-03-15T07:28:03.079200","MEAN_MOTION":13.2441654,"ECCENTRICITY":0.00019644,"INCLINATION":86.4956,"RA_OF_ASC_NODE":314.1123,"ARG_OF_PERICENTER":77.4874,"MEAN_ANOMALY":282.648,"EPHEMERIS_TYPE":0,"CLASSIFICATION_TYPE":"U","NORAD_CAT_ID":66953,"ELEMENT_SET_NO":999,"REV_AT_EPOCH":1291,"BSTAR":0.00013758889,"MEAN_MOTION_DOT":7.4e-7,"MEAN_MOTION_DDOT":0},{"OBJECT_NAME":"HULIANWANG DIGUI-115","OBJECT_ID":"2025-287B","EPOCH":"2026-03-15T07:17:08.777184","MEAN_MOTION":13.2441664,"ECCENTRICITY":0.00020254,"INCLINATION":86.4972,"RA_OF_ASC_NODE":314.1255,"ARG_OF_PERICENTER":75.8714,"MEAN_ANOMALY":284.2645,"EPHEMERIS_TYPE":0,"CLASSIFICATION_TYPE":"U","NORAD_CAT_ID":66954,"ELEMENT_SET_NO":999,"REV_AT_EPOCH":1291,"BSTAR":0.00012821148,"MEAN_MOTION_DOT":7.0e-7,"MEAN_MOTION_DDOT":0},{"OBJECT_NAME":"HULIANWANG DIGUI-116","OBJECT_ID":"2025-287C","EPOCH":"2026-03-15T07:06:16.630848","MEAN_MOTION":13.24416761,"ECCENTRICITY":0.00020259,"INCLINATION":86.4911,"RA_OF_ASC_NODE":314.0588,"ARG_OF_PERICENTER":75.8038,"MEAN_ANOMALY":284.3321,"EPHEMERIS_TYPE":0,"CLASSIFICATION_TYPE":"U","NORAD_CAT_ID":66955,"ELEMENT_SET_NO":999,"REV_AT_EPOCH":1291,"BSTAR":0.00013667283,"MEAN_MOTION_DOT":7.3e-7,"MEAN_MOTION_DDOT":0},{"OBJECT_NAME":"HULIANWANG DIGUI-117","OBJECT_ID":"2025-287D","EPOCH":"2026-03-15T06:55:28.533216","MEAN_MOTION":13.24414911,"ECCENTRICITY":5.489e-5,"INCLINATION":86.4972,"RA_OF_ASC_NODE":314.1188,"ARG_OF_PERICENTER":20.8766,"MEAN_ANOMALY":339.2391,"EPHEMERIS_TYPE":0,"CLASSIFICATION_TYPE":"U","NORAD_CAT_ID":66956,"ELEMENT_SET_NO":999,"REV_AT_EPOCH":1291,"BSTAR":0.0001257176,"MEAN_MOTION_DOT":6.9e-7,"MEAN_MOTION_DDOT":0},{"OBJECT_NAME":"HULIANWANG DIGUI-118","OBJECT_ID":"2025-287E","EPOCH":"2026-03-15T06:44:33.569376","MEAN_MOTION":13.24416199,"ECCENTRICITY":0.00020065,"INCLINATION":86.4948,"RA_OF_ASC_NODE":314.0904,"ARG_OF_PERICENTER":76.0916,"MEAN_ANOMALY":284.0441,"EPHEMERIS_TYPE":0,"CLASSIFICATION_TYPE":"U","NORAD_CAT_ID":66957,"ELEMENT_SET_NO":999,"REV_AT_EPOCH":1291,"BSTAR":8.1214814e-5,"MEAN_MOTION_DOT":5.0e-7,"MEAN_MOTION_DDOT":0},{"OBJECT_NAME":"HULIANWANG DIGUI-119","OBJECT_ID":"2025-295A","EPOCH":"2026-03-12T08:36:11.181600","MEAN_MOTION":13.39547948,"ECCENTRICITY":5.663e-5,"INCLINATION":50.0096,"RA_OF_ASC_NODE":13.3395,"ARG_OF_PERICENTER":265.1296,"MEAN_ANOMALY":94.9516,"EPHEMERIS_TYPE":0,"CLASSIFICATION_TYPE":"U","NORAD_CAT_ID":67059,"ELEMENT_SET_NO":999,"REV_AT_EPOCH":1261,"BSTAR":0.0001157131,"MEAN_MOTION_DOT":-6.5e-7,"MEAN_MOTION_DDOT":0},{"OBJECT_NAME":"HULIANWANG DIGUI-120","OBJECT_ID":"2025-295B","EPOCH":"2026-03-11T23:17:34.992096","MEAN_MOTION":13.40365135,"ECCENTRICITY":0.00016529,"INCLINATION":50.0062,"RA_OF_ASC_NODE":14.63,"ARG_OF_PERICENTER":5.8577,"MEAN_ANOMALY":354.2319,"EPHEMERIS_TYPE":0,"CLASSIFICATION_TYPE":"U","NORAD_CAT_ID":67060,"ELEMENT_SET_NO":999,"REV_AT_EPOCH":1256,"BSTAR":0.00010929546,"MEAN_MOTION_DOT":-6.8e-7,"MEAN_MOTION_DDOT":0},{"OBJECT_NAME":"HULIANWANG DIGUI-121","OBJECT_ID":"2025-295C","EPOCH":"2026-03-11T23:28:53.833440","MEAN_MOTION":13.40193766,"ECCENTRICITY":5.816e-5,"INCLINATION":50.0004,"RA_OF_ASC_NODE":14.6358,"ARG_OF_PERICENTER":243.3299,"MEAN_ANOMALY":116.7519,"EPHEMERIS_TYPE":0,"CLASSIFICATION_TYPE":"U","NORAD_CAT_ID":67061,"ELEMENT_SET_NO":999,"REV_AT_EPOCH":1256,"BSTAR":0.00011162287,"MEAN_MOTION_DOT":-6.7e-7,"MEAN_MOTION_DDOT":0},{"OBJECT_NAME":"HULIANWANG DIGUI-122","OBJECT_ID":"2025-295D","EPOCH":"2026-03-11T23:06:20.717856","MEAN_MOTION":13.40600272,"ECCENTRICITY":5.992e-5,"INCLINATION":50.0079,"RA_OF_ASC_NODE":14.5845,"ARG_OF_PERICENTER":170.514,"MEAN_ANOMALY":189.5749,"EPHEMERIS_TYPE":0,"CLASSIFICATION_TYPE":"U","NORAD_CAT_ID":67062,"ELEMENT_SET_NO":999,"REV_AT_EPOCH":1256,"BSTAR":0.00010890661,"MEAN_MOTION_DOT":-6.8e-7,"MEAN_MOTION_DDOT":0},{"OBJECT_NAME":"HULIANWANG DIGUI-123","OBJECT_ID":"2025-295E","EPOCH":"2026-03-11T22:56:10.322592","MEAN_MOTION":13.40465295,"ECCENTRICITY":4.391e-5,"INCLINATION":50.0058,"RA_OF_ASC_NODE":14.5506,"ARG_OF_PERICENTER":333.8859,"MEAN_ANOMALY":26.1996,"EPHEMERIS_TYPE":0,"CLASSIFICATION_TYPE":"U","NORAD_CAT_ID":67063,"ELEMENT_SET_NO":999,"REV_AT_EPOCH":1256,"BSTAR":0.00013586306,"MEAN_MOTION_DOT":-5.3e-7,"MEAN_MOTION_DDOT":0},{"OBJECT_NAME":"HULIANWANG DIGUI-124","OBJECT_ID":"2025-295F","EPOCH":"2026-03-12T00:32:37.696128","MEAN_MOTION":13.40670556,"ECCENTRICITY":4.499e-5,"INCLINATION":50.0034,"RA_OF_ASC_NODE":14.1988,"ARG_OF_PERICENTER":169.1151,"MEAN_ANOMALY":190.9735,"EPHEMERIS_TYPE":0,"CLASSIFICATION_TYPE":"U","NORAD_CAT_ID":67064,"ELEMENT_SET_NO":999,"REV_AT_EPOCH":1257,"BSTAR":0.00011300016,"MEAN_MOTION_DOT":-6.6e-7,"MEAN_MOTION_DDOT":0},{"OBJECT_NAME":"HULIANWANG DIGUI-125","OBJECT_ID":"2025-295G","EPOCH":"2026-03-12T18:16:00.488064","MEAN_MOTION":13.40280141,"ECCENTRICITY":0.00012863,"INCLINATION":49.9987,"RA_OF_ASC_NODE":11.4269,"ARG_OF_PERICENTER":48.3101,"MEAN_ANOMALY":311.7885,"EPHEMERIS_TYPE":0,"CLASSIFICATION_TYPE":"U","NORAD_CAT_ID":67065,"ELEMENT_SET_NO":999,"REV_AT_EPOCH":1267,"BSTAR":0.0001208229,"MEAN_MOTION_DOT":-6.2e-7,"MEAN_MOTION_DDOT":0},{"OBJECT_NAME":"HULIANWANG DIGUI-126","OBJECT_ID":"2025-295H","EPOCH":"2026-03-11T22:24:16.547904","MEAN_MOTION":13.41096901,"ECCENTRICITY":0.00028673,"INCLINATION":49.9985,"RA_OF_ASC_NODE":14.3887,"ARG_OF_PERICENTER":32.3915,"MEAN_ANOMALY":327.7137,"EPHEMERIS_TYPE":0,"CLASSIFICATION_TYPE":"U","NORAD_CAT_ID":67066,"ELEMENT_SET_NO":999,"REV_AT_EPOCH":1256,"BSTAR":8.6144555e-5,"MEAN_MOTION_DOT":-8.0e-7,"MEAN_MOTION_DDOT":0},{"OBJECT_NAME":"HULIANWANG DIGUI-127","OBJECT_ID":"2025-295J","EPOCH":"2026-03-11T23:57:37.565280","MEAN_MOTION":13.4074612,"ECCENTRICITY":1.685e-5,"INCLINATION":50.0049,"RA_OF_ASC_NODE":14.0866,"ARG_OF_PERICENTER":5.0309,"MEAN_ANOMALY":355.057,"EPHEMERIS_TYPE":0,"CLASSIFICATION_TYPE":"U","NORAD_CAT_ID":67067,"ELEMENT_SET_NO":999,"REV_AT_EPOCH":1257,"BSTAR":-0.00028737971,"MEAN_MOTION_DOT":-2.87e-6,"MEAN_MOTION_DDOT":0},{"OBJECT_NAME":"HULIANWANG DIGUI-128","OBJECT_ID":"2025-311A","EPOCH":"2026-03-15T05:06:07.147872","MEAN_MOTION":13.29331006,"ECCENTRICITY":7.64e-6,"INCLINATION":50.0073,"RA_OF_ASC_NODE":92.5606,"ARG_OF_PERICENTER":359.1627,"MEAN_ANOMALY":0.9245,"EPHEMERIS_TYPE":0,"CLASSIFICATION_TYPE":"U","NORAD_CAT_ID":67236,"ELEMENT_SET_NO":999,"REV_AT_EPOCH":1084,"BSTAR":9.644323e-5,"MEAN_MOTION_DOT":-7.9e-7,"MEAN_MOTION_DDOT":0}]
