HULIANWANG DIGUI-113    
1 66923U 25285J   26074.28536152 -.00000075  00000+0  10555-3 0  9990
2 66923  50.0083 122.4490 0000233 323.6940  36.3916 13.29331463 13570
HULIANWANG DIGUI-114    
1 66953U 25287A   26074.31114675  .00000074  00000+0  13759-3 0  9998
2 66953  86.4956 314.1123 0001964  77.4874 282.6480 13.24416540 12914
HULIANWANG DIGUI-115    
1 66954U 25287B   26074.30357381  .00000070  00000+0  12821-3 0  9996
2 66954  86.4972 314.1255 0002025  75.8714 284.2645 13.24416640 12915
HULIANWANG DIGUI-116    
1 66955U 25287C   26074.29602582  .00000073  00000+0  13667-3 0  9993
2 66955  86.4911 314.0588 0002025  75.8038 284.3321 13.24416761 12912
HULIANWANG DIGUI-117    
1 66956U 25287D   26074.28852469  .00000069  00000+0  12572-3 0  9993
2 66956  86.4972 314.1188 0000548  20.8766 339.2391 13.24414911 12915
HULIANWANG DIGUI-118    
1 66957U 25287E   26074.28094409  .00000050  00000+0  81215-4 0  9997
2 66957  86.4948 314.0904 0002006  76.0916 284.0441 13.24416199 12918
HULIANWANG DIGUI-119    
1 67059U 25295A   26071.35846275 -.00000065  00000+0  11571-3 0  9995
2 67059  50.0096  13.3395 0000566 265.1296  94.9516 13.39547948 12618
HULIANWANG DIGUI-120    
1 67060U 25295B   26070.97054389 -.00000068  00000+0  10930-3 0  9992
2 67060  50.0062  14.6300 0001652   5.8577 354.2319 13.40365135 12566
HULIANWANG DIGUI-121    
1 67061U 25295C   26070.97840085 -.00000067  00000+0  11162-3 0  9996
2 67061  50.0004  14.6358 0000581 243.3299 116.7519 13.40193766 12568
HULIANWANG DIGUI-122    
1 67062U 25295D   26070.96273979 -.00000068  00000+0  10891-3 0  9997
2 67062  50.0079  14.5845 0000599 170.5140 189.5749 13.40600272 12564
HULIANWANG DIGUI-123    
1 67063U 25295E   26070.95567503 -.00000053  00000+0  13586-3 0  9994
2 67063  50.0058  14.5506 0000439 333.8859  26.1996 13.40465295 12564
HULIANWANG DIGUI-124    
1 67064U 25295F   26071.02265852 -.00000066  00000+0  11300-3 0  9992
2 67064  50.0034  14.1988 0000449 169.1151 190.9735 13.40670556 12575
HULIANWANG DIGUI-125    
1 67065U 25295G   26071.76111676 -.00000062  00000+0  12082-3 0  9992
2 67065  49.9987  11.4269 0001286  48.3101 311.7885 13.40280141 12672
HULIANWANG DIGUI-126    
1 67066U 25295H   26070.93352486 -.00000080  00000+0  86145-4 0  9999
2 67066  49.9985  14.3887 0002867  32.3915 327.7137 13.41096901 12566
HULIANWANG DIGUI-127    
1 67067U 25295J   26070.99835145 -.00000287  00000+0 -28738-3 0  9997
2 67067  50.0049  14.0866 0000168   5.0309 355.0570 13.40746120 12571
HULIANWANG DIGUI-128    
1 67236U 25311A   26074.21258273 -.00000079  00000+0  96443-4 0  9991
2 67236  50.0073  92.5606 0000076 359.1627   0.9245 13.29331006 10846
